{
  "type": "FeatureCollection",
  "features": [
    {
      "type": "Feature",
      "properties": {
        "norad_id": 34070,
        "name": "COSMOS 2251 DEB",
        "group": "cosmos-2251-debris",
        "lat": 58.47668737112126,
        "lon": -74.93043000673012,
        "alt_km": 642.9164819496182,
        "timestamp": "2025-12-04T05:42:43.765768+00:00",
        "meta_object_name": "COSMOS 2251 DEB",
        "meta_object_id": "1993-036KH",
        "meta_epoch": "2025-12-03T03:41:20.155200",
        "meta_mean_motion": 14.76452563,
        "meta_eccentricity": 0.00193125,
        "meta_inclination": 73.9994,
        "meta_ra_of_asc_node": 135.0909,
        "meta_arg_of_pericenter": 248.9889,
        "meta_mean_anomaly": 227.6427,
        "meta_ephemeris_type": 0,
        "meta_classification_type": "U",
        "meta_norad_cat_id": 34070,
        "meta_element_set_no": 999,
        "meta_rev_at_epoch": 88469,
        "meta_bstar": 0.0035058051,
        "meta_mean_motion_dot": 0.00024529,
        "meta_mean_motion_ddot": 0,
        "tle_line1": "1 34070U 93036KH  25337.15370550  .00024529  00000+0  35058-2 0  9995",
        "tle_line2": "2 34070  73.9994 135.0909 0019312 248.9889 227.6427 14.76452563884696"
      },
      "geometry": {
        "type": "Point",
        "coordinates": [
          -74.93043000673012,
          58.47668737112126
        ]
      }
    },
    {
      "type": "Feature",
      "properties": {
        "norad_id": 34114,
        "name": "COSMOS 2251 DEB",
        "group": "cosmos-2251-debris",
        "lat": -50.01047664480344,
        "lon": -100.14127832943464,
        "alt_km": 745.4510916303625,
        "timestamp": "2025-12-04T05:42:43.765778+00:00",
        "meta_object_name": "COSMOS 2251 DEB",
        "meta_object_id": "1993-036KK",
        "meta_epoch": "2025-12-03T07:32:34.249056",
        "meta_mean_motion": 14.56147398,
        "meta_eccentricity": 0.0047253,
        "meta_inclination": 74.0603,
        "meta_ra_of_asc_node": 61.6863,
        "meta_arg_of_pericenter": 60.0546,
        "meta_mean_anomaly": 12.3343,
        "meta_ephemeris_type": 0,
        "meta_classification_type": "U",
        "meta_norad_cat_id": 34114,
        "meta_element_set_no": 999,
        "meta_rev_at_epoch": 87664,
        "meta_bstar": 0.0024793,
        "meta_mean_motion_dot": 0.000111,
        "meta_mean_motion_ddot": 0,
        "tle_line1": "1 34114U 93036KK  25337.31428529  .00011100  00000+0  24793-2 0  9997",
        "tle_line2": "2 34114  74.0603  61.6863 0047253  60.0546  12.3343 14.56147398876642"
      },
      "geometry": {
        "type": "Point",
        "coordinates": [
          -100.14127832943464,
          -50.01047664480344
        ]
      }
    },
    {
      "type": "Feature",
      "properties": {
        "norad_id": 34115,
        "name": "COSMOS 2251 DEB",
        "group": "cosmos-2251-debris",
        "lat": -1.1430294597066084,
        "lon": -101.62725676322869,
        "alt_km": 632.9581405279914,
        "timestamp": "2025-12-04T05:42:43.765788+00:00",
        "meta_object_name": "COSMOS 2251 DEB",
        "meta_object_id": "1993-036KL",
        "meta_epoch": "2025-12-03T21:36:07.134048",
        "meta_mean_motion": 14.79257879,
        "meta_eccentricity": 0.00282212,
        "meta_inclination": 74.0077,
        "meta_ra_of_asc_node": 259.3663,
        "meta_arg_of_pericenter": 85.5347,
        "meta_mean_anomaly": 274.9052,
        "meta_ephemeris_type": 0,
        "meta_classification_type": "U",
        "meta_norad_cat_id": 34115,
        "meta_element_set_no": 999,
        "meta_rev_at_epoch": 89281,
        "meta_bstar": 0.0021034727,
        "meta_mean_motion_dot": 0.00015745,
        "meta_mean_motion_ddot": 0,
        "tle_line1": "1 34115U 93036KL  25337.90008257  .00015745  00000+0  21035-2 0  9990",
        "tle_line2": "2 34115  74.0077 259.3663 0028221  85.5347 274.9052 14.79257879892818"
      },
      "geometry": {
        "type": "Point",
        "coordinates": [
          -101.62725676322869,
          -1.1430294597066084
        ]
      }
    },
    {
      "type": "Feature",
      "properties": {
        "norad_id": 34116,
        "name": "COSMOS 2251 DEB",
        "group": "cosmos-2251-debris",
        "lat": 48.64322298742756,
        "lon": -142.2180439579546,
        "alt_km": 717.7862362739406,
        "timestamp": "2025-12-04T05:42:43.765798+00:00",
        "meta_object_name": "COSMOS 2251 DEB",
        "meta_object_id": "1993-036KM",
        "meta_epoch": "2025-12-03T21:15:48.588192",
        "meta_mean_motion": 14.52896017,
        "meta_eccentricity": 0.00122896,
        "meta_inclination": 74.0409,
        "meta_ra_of_asc_node": 199.4752,
        "meta_arg_of_pericenter": 275.6197,
        "meta_mean_anomaly": 95.1745,
        "meta_ephemeris_type": 0,
        "meta_classification_type": "U",
        "meta_norad_cat_id": 34116,
        "meta_element_set_no": 999,
        "meta_rev_at_epoch": 88358,
        "meta_bstar": 0.0013856072,
        "meta_mean_motion_dot": 5.687e-05,
        "meta_mean_motion_ddot": 0,
        "tle_line1": "1 34116U 93036KM  25337.88597903  .00005687  00000+0  13856-2 0  9995",
        "tle_line2": "2 34116  74.0409 199.4752 0012289 275.6197  95.1745 14.52896017883583"
      },
      "geometry": {
        "type": "Point",
        "coordinates": [
          -142.2180439579546,
          48.64322298742756
        ]
      }
    },
    {
      "type": "Feature",
      "properties": {
        "norad_id": 34117,
        "name": "COSMOS 2251 DEB",
        "group": "cosmos-2251-debris",
        "lat": -73.4160144795534,
        "lon": -74.3895998947668,
        "alt_km": 802.901117591945,
        "timestamp": "2025-12-04T05:42:43.765808+00:00",
        "meta_object_name": "COSMOS 2251 DEB",
        "meta_object_id": "1993-036KN",
        "meta_epoch": "2025-12-03T18:26:19.633920",
        "meta_mean_motion": 14.39953001,
        "meta_eccentricity": 0.00543864,
        "meta_inclination": 74.0405,
        "meta_ra_of_asc_node": 0.404,
        "meta_arg_of_pericenter": 79.5109,
        "meta_mean_anomaly": 281.2167,
        "meta_ephemeris_type": 0,
        "meta_classification_type": "U",
        "meta_norad_cat_id": 34117,
        "meta_element_set_no": 999,
        "meta_rev_at_epoch": 87994,
        "meta_bstar": 0.00092009462,
        "meta_mean_motion_dot": 2.921e-05,
        "meta_mean_motion_ddot": 0,
        "tle_line1": "1 34117U 93036KN  25337.76828280  .00002921  00000+0  92009-3 0  9994",
        "tle_line2": "2 34117  74.0405   0.4040 0054386  79.5109 281.2167 14.39953001879942"
      },
      "geometry": {
        "type": "Point",
        "coordinates": [
          -74.3895998947668,
          -73.4160144795534
        ]
      }
    },
    {
      "type": "Feature",
      "properties": {
        "norad_id": 34118,
        "name": "COSMOS 2251 DEB",
        "group": "cosmos-2251-debris",
        "lat": 34.19643855813856,
        "lon": 75.22266652094854,
        "alt_km": 555.3224442720029,
        "timestamp": "2025-12-04T05:42:43.765818+00:00",
        "meta_object_name": "COSMOS 2251 DEB",
        "meta_object_id": "1993-036KP",
        "meta_epoch": "2025-12-03T21:20:49.003584",
        "meta_mean_motion": 14.93343048,
        "meta_eccentricity": 0.00600308,
        "meta_inclination": 73.9531,
        "meta_ra_of_asc_node": 267.2057,
        "meta_arg_of_pericenter": 99.6955,
        "meta_mean_anomaly": 330.8857,
        "meta_ephemeris_type": 0,
        "meta_classification_type": "U",
        "meta_norad_cat_id": 34118,
        "meta_element_set_no": 999,
        "meta_rev_at_epoch": 89044,
        "meta_bstar": 0.0040226513,
        "meta_mean_motion_dot": 0.00043931,
        "meta_mean_motion_ddot": 0,
        "tle_line1": "1 34118U 93036KP  25337.88945606  .00043931  00000+0  40227-2 0  9990",
        "tle_line2": "2 34118  73.9531 267.2057 0060030  99.6955 330.8857 14.93343048890446"
      },
      "geometry": {
        "type": "Point",
        "coordinates": [
          75.22266652094854,
          34.19643855813856
        ]
      }
    },
    {
      "type": "Feature",
      "properties": {
        "norad_id": 34120,
        "name": "COSMOS 2251 DEB",
        "group": "cosmos-2251-debris",
        "lat": -36.14715320394533,
        "lon": 63.05105175894287,
        "alt_km": 1025.8062892499165,
        "timestamp": "2025-12-04T05:42:43.765828+00:00",
        "meta_object_name": "COSMOS 2251 DEB",
        "meta_object_id": "1993-036KR",
        "meta_epoch": "2025-12-03T18:38:56.966208",
        "meta_mean_motion": 13.98666587,
        "meta_eccentricity": 0.01815838,
        "meta_inclination": 73.9918,
        "meta_ra_of_asc_node": 231.7442,
        "meta_arg_of_pericenter": 61.454,
        "meta_mean_anomaly": 355.3729,
        "meta_ephemeris_type": 0,
        "meta_classification_type": "U",
        "meta_norad_cat_id": 34120,
        "meta_element_set_no": 999,
        "meta_rev_at_epoch": 85855,
        "meta_bstar": 0.0005267997,
        "meta_mean_motion_dot": 8.48e-06,
        "meta_mean_motion_ddot": 0,
        "tle_line1": "1 34120U 93036KR  25337.77704822  .00000848  00000+0  52680-3 0  9991",
        "tle_line2": "2 34120  73.9918 231.7442 0181583  61.4540 355.3729 13.98666587858552"
      },
      "geometry": {
        "type": "Point",
        "coordinates": [
          63.05105175894287,
          -36.14715320394533
        ]
      }
    }
  ]
}